PROMETHEUS 2-3          
1 41855U 16067H   25212.56792422  .00061836  00000+0  99124-3 0  9993
2 41855  98.0626  71.2821 0006019  80.8762 279.3170 15.52864844478469
CORVUS BC2              
1 42846U 17042X   25212.90226315  .00003932  00000+0  29410-3 0  9993
2 42846  97.3756  22.9922 0014676 123.8185 236.4440 15.03225650438895
CORVUS BC1              
1 42847U 17042Y   25212.94464034  .00003995  00000+0  29664-3 0  9990
2 42847  97.3827  23.6080 0014247 102.2149 258.0674 15.03496591438920
MIRATA                  
1 43015U 17073C   25212.70208116  .00086898  00000+0  11106-2 0  9997
2 43015  97.5298 110.0970 0065290 251.9257 107.4878 15.56365922418895
MAKERSAT 0              
1 43016U 17073D   25212.60823087  .00017332  00000+0  67589-3 0  9991
2 43016  97.5111  90.3127 0141716 320.3618  38.7321 15.17091029417613
SIRION PATHFINDER-2     
1 43759U 18099B   25212.73000049  .00005155  00000+0  31797-3 0  9995
2 43759  97.4740 264.4089 0008560 335.4429  24.6391 15.10328313364187
CORVUS BC4              
1 43767U 18099K   25212.68226962  .00005486  00000+0  35278-3 0  9997
2 43767  97.4552 259.9346 0009587  34.0410 326.1432 15.08763332364013
SPACEBEE-7              
1 43816U 18099BL  25212.92091493  .00036327  00000+0  93661-3 0  9996
2 43816  97.4918 284.2198 0004425 280.0246  80.0500 15.39091384364844
SHIELDS 1               
1 43850U 18104B   25212.88906327  .00039191  00000+0  41195-3 0  9994
2 43850  85.0151 359.6255 0004414 307.3390  52.7472 15.64142615369623
DUCHIFAT-3              
1 44854U 19089C   25212.85046349  .00060805  00000+0  10187-2 0  9990
2 44854  36.9420  21.8552 0005837   8.3613 351.7241 15.50766207311128
M2 PATHFINDER           
1 45727U 20037E   25212.75753231  .00002417  00000+0  18672-3 0  9992
2 45727  97.8175  35.8070 0013473 144.2653 215.9476 15.02439528277346
NETSAT-4                
1 46504U 20068U   25212.89733005  .00014724  00000+0  48593-3 0  9991
2 46504  97.8486 193.7299 0007639  35.1149 325.0593 15.31503144266559
NETSAT-3                
1 46505U 20068V   25212.94106244  .00014039  00000+0  48538-3 0  9995
2 46505  97.8489 192.5925 0007854  46.1597 314.0290 15.30005348266514
NETSAT-1                
1 46506U 20068W   25212.89942104  .00010828  00000+0  43707-3 0  9998
2 46506  97.8514 189.9847 0007952  59.1728 301.0290 15.24952011266333
NETSAT-2                
1 46507U 20068X   25212.89971224  .00015931  00000+0  53020-3 0  9993
2 46507  97.8485 193.1898 0007006  62.1522 298.0427 15.31216440266491
WILDTRACKCUBE-SIMBA     
1 47941U 21022K   25212.91497054  .00034894  00000+0  66311-3 0  9990
2 47941  97.4154 118.7152 0011733 117.6178 242.6265 15.48114276241281
LEDSAT                  
1 49069U 21073D   25212.76911635  .00107140  00000+0  95900-3 0  9999
2 49069  97.3846 296.7417 0008662 233.5440 126.5024 15.67966757219591
GREENCUBE (IO-117)      
1 53109U 22080E   25212.88457727 -.00000003  00000+0  00000+0 0  9992
2 53109  70.1401  49.6228 0008534 359.3104   0.7543  6.42583857 71486
SITRO-AIS 5 (KATYS)     
1 57176U 23091L   25212.88616238  .00010323  00000+0  47309-3 0  9999
2 57176  97.5548 269.9368 0014997 143.5957 216.6301 15.20559664115529
SITRO-AIS 6 (CHIRKIN)   
1 57192U 23091AC  25212.94271816  .00009781  00000+0  44977-3 0  9997
2 57192  97.5545 269.9947 0014944 143.1960 217.0304 15.20458871115536
SITRO-AIS 8 (ANOKHIN)   
1 57193U 23091AD  25212.93202764  .00011687  00000+0  51374-3 0  9990
2 57193  97.5542 270.6033 0014343 142.6376 217.5860 15.21965471115573
SITRO-AIS 7 (FARTUSHNIY)
1 57194U 23091AE  25212.90205959  .00010595  00000+0  48845-3 0  9993
2 57194  97.5545 269.8843 0014707 144.0808 216.1418 15.20352509115526
SITRO-AIS 10 (BURDAEV)  
1 57199U 23091AK  25212.92687844  .00013631  00000+0  54000-3 0  9991
2 57199  97.5555 273.2051 0010436 126.1973 234.0231 15.25487555115731
SITRO-AIS 9 (SHCHUKIN)  
1 57201U 23091AM  25212.88566525  .00013005  00000+0  51845-3 0  9991
2 57201  97.5550 273.0591 0010485 126.5000 233.7205 15.25287050115720
SITRO-AIS 12 (SMIRENNIY)
1 57204U 23091AQ  25212.92639202  .00013781  00000+0  54582-3 0  9994
2 57204  97.5560 273.4054 0010366 120.9299 239.2959 15.25492300115743
SITRO-AIS 11 (SHEFFER)  
1 57208U 23091AU  25212.93781298  .00013704  00000+0  53932-3 0  9995
2 57208  97.5558 273.5207 0010252 120.9724 239.2522 15.25707322115752
VERONIKA                
1 58261U 23174F   25212.79159790  .00554912  12646-3  15241-2 0  9991
2 58261  97.4019 302.8145 0008666 241.5146 118.5256 15.93919914 96921
ROBUSTA-1E (ENSO)       
1 58470U 23185J   25212.90347534  .00072037  00000+0  83999-3 0  9999
2 58470  97.3691 289.8926 0006248 234.8458 125.2214 15.61402092 93187
SITRO-AIS 25            
1 59066U 24039R   25212.93084656  .00003331  00000+0  28149-3 0  9993
2 59066  95.3796  15.6392 0154836   5.8366 354.4614 14.89538464 76987
SITRO-AIS 26            
1 59067U 24039S   25212.89474343  .00002745  00000+0  23326-3 0  9995
2 59067  95.3797  15.5669 0155069   6.2250 354.0851 14.89388350 76976
SITRO-AIS 27            
1 59068U 24039T   25212.94545940  .00003104  00000+0  26161-3 0  9994
2 59068  95.3798  15.7439 0154283   5.3239 354.9579 14.89720866 76999
SITRO-AIS 28            
1 59071U 24039U   25212.86393145  .00003411  00000+0  28708-3 0  9997
2 59071  95.3799  15.7177 0154130   5.5040 354.7832 14.89758607 76989
GRBBETA                 
1 60237U 24128C   25212.63475312  .00003373  00000+0  25695-3 0  9993
2 60237  61.9902 258.0072 0055300  68.5341 292.1635 15.02998219 58020
OOV-CUBE (TUBSAT-30)    
1 60240U 24128F   25212.71303725  .00002087  00000+0  17601-3 0  9993
2 60240  61.9947 261.2581 0055839  65.7182 294.9726 15.00492062 57981
ROBUSTA-3A (MEDITERRAN*)
1 60243U 24128J   25212.46720775  .00005624  00000+0  39371-3 0  9994
2 60243  61.9871 257.0934 0054297  62.4682 298.1913 15.05251910 58032
LASARSAT                
1 62391U 24247Q   25212.07783278  .00016483  00000+0  61582-3 0  9990
2 62391  44.9797 239.1816 0008801 340.7547  19.3002 15.27194491 33936
CROCUBE                 
1 62394U 24247T   25212.12990809  .00016609  00000+0  61540-3 0  9993
2 62394  44.9781 238.6941 0009815 345.7953  14.2652 15.27456471 33942
